IRNSS-1A----------------
1 39199U 13034A   22134.94840973  .00000097  00000+0  00000+0 0  9992
2 39199  32.3564  85.8879 0017453 184.5411 358.8237  1.00278833 32389
IRNSS-1B----------------
1 39635U 14017A   22143.90465817  .00000070  00000+0  00000+0 0  9996
2 39635  28.7928 265.5171 0022555 182.9741 173.6888  1.00274576 29893
IRNSS-1C----------------
1 40269U 14061A   22143.92897354 -.00000167  00000+0  00000+0 0  9995
2 40269   2.9096 129.8281 0019838   5.9855 163.1950  1.00272445 27932
IRNSS-1D----------------
1 40547U 15018A   22143.77226010 -.00000313  00000+0  00000+0 0  9998
2 40547  28.6199 265.5543 0022856 183.4369 182.2478  1.00271405 26352
IRNSS-1E----------------
1 41241U 16003A   22143.77226010 -.00000297  00000+0  00000+0 0  9996
2 41241  29.9258  84.9976 0018051 182.1791   4.0156  1.00271808 23307
IRNSS-1F----------------
1 41384U 16015A   22143.82834139  .00000153  00000+0  00000+0 0  9990
2 41384   2.1492 158.4596 0019225 188.1432 225.4485  1.00270273 22774
IRNSS-1G----------------
1 41469U 16027A   22143.84770383 -.00000341  00000+0  00000+0 0  9999
2 41469   2.0855 161.5076 0006785 294.4462 220.1894  1.00269831 22289
IRNSS-1I----------------
1 43286U 18035A   22142.94136869  .00000099  00000+0  00000+0 0  9993
2 43286  29.0223  97.7606 0019056 186.3758 350.2682  1.00269446 15179
